{"type": "FeatureCollection", "features": [ {"type": "Feature", "properties": {"norad_id": 66757, "name": "TRANSPORTER-15CV", "group": "last-30-days", "lat": -34.80458975790163, "lon": 77.33384371272088, "alt_km": 515.3709982421778, "timestamp": "2025-12-26T13:39:17.665040+00:00", "meta": {"OBJECT_NAME": "TRANSPORTER-15CV", "OBJECT_ID": "2025-276CV", "EPOCH": "2025-12-26T05:54:03.004704", "MEAN_MOTION": 15.18289271, "ECCENTRICITY": 0.00028631, "INCLINATION": 97.4409, "RA_OF_ASC_NODE": 71.8035, "ARG_OF_PERICENTER": 298.0607, "MEAN_ANOMALY": 62.0337, "EPHEMERIS_TYPE": 0, "CLASSIFICATION_TYPE": "U", "NORAD_CAT_ID": 66757, "ELEMENT_SET_NO": 999, "REV_AT_EPOCH": 417, "BSTAR": 0.0052115974, "MEAN_MOTION_DOT": 0.00108292, "MEAN_MOTION_DDOT": 0}, "tle": {"line1": "1 66757U 25276CV  25360.24586811  .00108292  00000+0  52116-2 0  9992", "line2": "2 66757  97.4409  71.8035 0002863 298.0607  62.0337 15.18289271  4178"}}, "geometry": {"type": "Point", "coordinates": [77.33384371272088, -34.80458975790163]}}, {"type": "Feature", "properties": {"norad_id": 66758, "name": "TRANSPORTER-15CW", "group": "last-30-days", "lat": -33.64476238774768, "lon": 77.10000959320054, "alt_km": 518.8298795662231, "timestamp": "2025-12-26T13:39:17.665051+00:00", "meta": {"OBJECT_NAME": "TRANSPORTER-15CW", "OBJECT_ID": "2025-276CW", "EPOCH": "2025-12-26T05:53:40.961472", "MEAN_MOTION": 15.18115134, "ECCENTRICITY": 0.00015575, "INCLINATION": 97.4386, "RA_OF_ASC_NODE": 71.7938, "ARG_OF_PERICENTER": 135.6569, "MEAN_ANOMALY": 224.479, "EPHEMERIS_TYPE": 0, "CLASSIFICATION_TYPE": "U", "NORAD_CAT_ID": 66758, "ELEMENT_SET_NO": 999, "REV_AT_EPOCH": 417, "BSTAR": 0.00031536036, "MEAN_MOTION_DOT": 6.367e-05, "MEAN_MOTION_DDOT": 0}, "tle": {"line1": "1 66758U 25276CW  25360.24561298  .00006367  00000+0  31536-3 0  9999", "line2": "2 66758  97.4386  71.7938 0001557 135.6569 224.4790 15.18115134  4179"}}, "geometry": {"type": "Point", "coordinates": [77.10000959320054, -33.64476238774768]}}, {"type": "Feature", "properties": {"norad_id": 66759, "name": "TRANSPORTER-15CX", "group": "last-30-days", "lat": -22.800698331504233, "lon": 75.2658888651258, "alt_km": 517.3373195106351, "timestamp": "2025-12-26T13:39:17.665063+00:00", "meta": {"OBJECT_NAME": "TRANSPORTER-15CX", "OBJECT_ID": "2025-276CX", "EPOCH": "2025-12-26T05:50:51.354816", "MEAN_MOTION": 15.18322691, "ECCENTRICITY": 0.00014437, "INCLINATION": 97.4397, "RA_OF_ASC_NODE": 71.797, "ARG_OF_PERICENTER": 161.3338, "MEAN_ANOMALY": 198.7949, "EPHEMERIS_TYPE": 0, "CLASSIFICATION_TYPE": "U", "NORAD_CAT_ID": 66759, "ELEMENT_SET_NO": 999, "REV_AT_EPOCH": 417, "BSTAR": 0.0018555139, "MEAN_MOTION_DOT": 0.00038179, "MEAN_MOTION_DDOT": 0}, "tle": {"line1": "1 66759U 25276CX  25360.24364994  .00038179  00000+0  18555-2 0  9995", "line2": "2 66759  97.4397  71.7970 0001443 161.3338 198.7949 15.18322691  4179"}}, "geometry": {"type": "Point", "coordinates": [75.2658888651258, -22.800698331504233]}}, {"type": "Feature", "properties": {"norad_id": 66760, "name": "TRANSPORTER-15CY", "group": "last-30-days", "lat": -21.226725061701394, "lon": 75.02788724386964, "alt_km": 517.4495740398406, "timestamp": "2025-12-26T13:39:17.665073+00:00", "meta": {"OBJECT_NAME": "TRANSPORTER-15CY", "OBJECT_ID": "2025-276CY", "EPOCH": "2025-12-26T05:50:24.331488", "MEAN_MOTION": 15.18233053, "ECCENTRICITY": 0.00018346, "INCLINATION": 97.439, "RA_OF_ASC_NODE": 71.7987, "ARG_OF_PERICENTER": 115.8059, "MEAN_ANOMALY": 244.3364, "EPHEMERIS_TYPE": 0, "CLASSIFICATION_TYPE": "U", "NORAD_CAT_ID": 66760, "ELEMENT_SET_NO": 999, "REV_AT_EPOCH": 417, "BSTAR": 0.00045036107, "MEAN_MOTION_DOT": 9.156e-05, "MEAN_MOTION_DDOT": 0}, "tle": {"line1": "1 66760U 25276CY  25360.24333717  .00009156  00000+0  45036-3 0  9994", "line2": "2 66760  97.4390  71.7987 0001834 115.8059 244.3364 15.18233053  4172"}}, "geometry": {"type": "Point", "coordinates": [75.02788724386964, -21.226725061701394]}}, {"type": "Feature", "properties": {"norad_id": 66761, "name": "TRANSPORTER-15CZ", "group": "last-30-days", "lat": -3.5724810648929073, "lon": 72.59335839263242, "alt_km": 514.4137623552915, "timestamp": "2025-12-26T13:39:17.665082+00:00", "meta": {"OBJECT_NAME": "TRANSPORTER-15CZ", "OBJECT_ID": "2025-276CZ", "EPOCH": "2025-12-26T05:45:48.345696", "MEAN_MOTION": 15.1854891, "ECCENTRICITY": 0.000174, "INCLINATION": 97.4389, "RA_OF_ASC_NODE": 71.8025, "ARG_OF_PERICENTER": 121.5134, "MEAN_ANOMALY": 238.627, "EPHEMERIS_TYPE": 0, "CLASSIFICATION_TYPE": "U", "NORAD_CAT_ID": 66761, "ELEMENT_SET_NO": 999, "REV_AT_EPOCH": 417, "BSTAR": 0.00051658066, "MEAN_MOTION_DOT": 0.0001061, "MEAN_MOTION_DDOT": 0}, "tle": {"line1": "1 66761U 25276CZ  25360.24014289  .00010610  00000+0  51658-3 0  9999", "line2": "2 66761  97.4389  71.8025 0001740 121.5134 238.6270 15.18548910  4172"}}, "geometry": {"type": "Point", "coordinates": [72.59335839263242, -3.5724810648929073]}}, {"type": "Feature", "properties": {"norad_id": 66762, "name": "HYDROGNSS-1", "group": "last-30-days", "lat": -72.75540617090125, "lon": -132.8115018046289, "alt_km": 520.6011803513156, "timestamp": "2025-12-26T13:39:17.665092+00:00", "meta": {"OBJECT_NAME": "HYDROGNSS-1", "OBJECT_ID": "2025-276DA", "EPOCH": "2025-12-26T06:12:22.260672", "MEAN_MOTION": 15.17327947, "ECCENTRICITY": 0.00010107, "INCLINATION": 97.4402, "RA_OF_ASC_NODE": 71.7817, "ARG_OF_PERICENTER": 230.929, "MEAN_ANOMALY": 129.1854, "EPHEMERIS_TYPE": 0, "CLASSIFICATION_TYPE": "U", "NORAD_CAT_ID": 66762, "ELEMENT_SET_NO": 999, "REV_AT_EPOCH": 417, "BSTAR": 0.00025159852, "MEAN_MOTION_DOT": 4.952e-05, "MEAN_MOTION_DDOT": 0}, "tle": {"line1": "1 66762U 25276DA  25360.25859098  .00004952  00000+0  25160-3 0  9997", "line2": "2 66762  97.4402  71.7817 0001010 230.9290 129.1854 15.17327947  4171"}}, "geometry": {"type": "Point", "coordinates": [-132.8115018046289, -72.75540617090125]}}, {"type": "Feature", "properties": {"norad_id": 66763, "name": "HYDROGNSS-2", "group": "last-30-days", "lat": -82.01190617498969, "lon": -176.54487025179026, "alt_km": 520.1535010564176, "timestamp": "2025-12-26T13:39:17.665102+00:00", "meta": {"OBJECT_NAME": "HYDROGNSS-2", "OBJECT_ID": "2025-276DB", "EPOCH": "2025-12-26T01:24:10.974240", "MEAN_MOTION": 15.17451017, "ECCENTRICITY": 0.00016493, "INCLINATION": 97.4407, "RA_OF_ASC_NODE": 71.5946, "ARG_OF_PERICENTER": 220.2496, "MEAN_ANOMALY": 139.8616, "EPHEMERIS_TYPE": 0, "CLASSIFICATION_TYPE": "U", "NORAD_CAT_ID": 66763, "ELEMENT_SET_NO": 999, "REV_AT_EPOCH": 414, "BSTAR": 0.00018696789, "MEAN_MOTION_DOT": 3.675e-05, "MEAN_MOTION_DDOT": 0}, "tle": {"line1": "1 66763U 25276DB  25360.05846035  .00003675  00000+0  18697-3 0  9991", "line2": "2 66763  97.4407  71.5946 0001649 220.2496 139.8616 15.17451017  4143"}}, "geometry": {"type": "Point", "coordinates": [-176.54487025179026, -82.01190617498969]}}, {"type": "Feature", "properties": {"norad_id": 66764, "name": "TRANSPORTER-15DC", "group": "last-30-days", "lat": -64.50947999776967, "lon": 88.00904037113318, "alt_km": 520.6593783277676, "timestamp": "2025-12-26T13:39:17.665114+00:00", "meta": {"OBJECT_NAME": "TRANSPORTER-15DC", "OBJECT_ID": "2025-276DC", "EPOCH": "2025-12-26T06:01:54.502464", "MEAN_MOTION": 15.17719342, "ECCENTRICITY": 0.00023832, "INCLINATION": 97.4399, "RA_OF_ASC_NODE": 71.7894, "ARG_OF_PERICENTER": 180.339, "MEAN_ANOMALY": 179.7842, "EPHEMERIS_TYPE": 0, "CLASSIFICATION_TYPE": "U", "NORAD_CAT_ID": 66764, "ELEMENT_SET_NO": 999, "REV_AT_EPOCH": 417, "BSTAR": 0.00048607587, "MEAN_MOTION_DOT": 9.743e-05, "MEAN_MOTION_DDOT": 0}, "tle": {"line1": "1 66764U 25276DC  25360.25132526  .00009743  00000+0  48608-3 0  9994", "line2": "2 66764  97.4399  71.7894 0002383 180.3390 179.7842 15.17719342  4178"}}, "geometry": {"type": "Point", "coordinates": [88.00904037113318, -64.50947999776967]}}, {"type": "Feature", "properties": {"norad_id": 66765, "name": "TRANSPORTER-15DD", "group": "last-30-days", "lat": 18.029371288991538, "lon": 69.70516155391236, "alt_km": 509.99524899531025, "timestamp": "2025-12-26T13:39:17.665126+00:00", "meta": {"OBJECT_NAME": "TRANSPORTER-15DD", "OBJECT_ID": "2025-276DD", "EPOCH": "2025-12-26T05:40:08.961312", "MEAN_MOTION": 15.18817622, "ECCENTRICITY": 0.00019744, "INCLINATION": 97.4414, "RA_OF_ASC_NODE": 71.8158, "ARG_OF_PERICENTER": 115.4586, "MEAN_ANOMALY": 244.6853, "EPHEMERIS_TYPE": 0, "CLASSIFICATION_TYPE": "U", "NORAD_CAT_ID": 66765, "ELEMENT_SET_NO": 999, "REV_AT_EPOCH": 417, "BSTAR": 0.00063895389, "MEAN_MOTION_DOT": 0.00013247, "MEAN_MOTION_DDOT": 0}, "tle": {"line1": "1 66765U 25276DD  25360.23621483  .00013247  00000+0  63895-3 0  9997", "line2": "2 66765  97.4414  71.8158 0001974 115.4586 244.6853 15.18817622  4177"}}, "geometry": {"type": "Point", "coordinates": [69.70516155391236, 18.029371288991538]}}, {"type": "Feature", "properties": {"norad_id": 66766, "name": "TRANSPORTER-15DE", "group": "last-30-days", "lat": -1.3598991348001053, "lon": 72.29233336409283, "alt_km": 513.6550714711093, "timestamp": "2025-12-26T13:39:17.665136+00:00", "meta": {"OBJECT_NAME": "TRANSPORTER-15DE", "OBJECT_ID": "2025-276DE", "EPOCH": "2025-12-26T05:45:11.268864", "MEAN_MOTION": 15.18454672, "ECCENTRICITY": 0.00019461, "INCLINATION": 97.4355, "RA_OF_ASC_NODE": 71.791, "ARG_OF_PERICENTER": 85.4835, "MEAN_ANOMALY": 274.6621, "EPHEMERIS_TYPE": 0, "CLASSIFICATION_TYPE": "U", "NORAD_CAT_ID": 66766, "ELEMENT_SET_NO": 999, "REV_AT_EPOCH": 417, "BSTAR": 0.00036366159, "MEAN_MOTION_DOT": 7.426e-05, "MEAN_MOTION_DDOT": 0}, "tle": {"line1": "1 66766U 25276DE  25360.23971376  .00007426  00000+0  36366-3 0  9992", "line2": "2 66766  97.4355  71.7910 0001946  85.4835 274.6621 15.18454672  4177"}}, "geometry": {"type": "Point", "coordinates": [72.29233336409283, -1.3598991348001053]}}]}